NORAD_CAT_ID,OBJECT_NAME,OBJECT_TYPE,EPOCH,MEAN_MOTION,ECCENTRICITY,INCLINATION,RA_OF_ASC_NODE,ARG_OF_PERICENTER,MEAN_ANOMALY,BSTAR,MEAN_MOTION_DOT,MEAN_MOTION_DDOT,TLE_LINE0,TLE_LINE1,TLE_LINE2,SEMIMAJOR_AXIS,PERIOD,APOGEE,PERIGEE,DECAYED
55780.0,STARLINK-5819,PAYLOAD,2024-03-16 12:30:27,14.98330227,0.0002865,70.0002,247.6477,260.5169,99.5667,-1.5193e-05,-2.74e-06,0.0,0 STARLINK-5819,1 55780U 23028AR  24076.52115315 -.00000274  00000-0 -15193-4 0  9990,2 55780  70.0002 247.6477 0002865 260.5169  99.5667 14.98330227 58210,6950.192,96.107,574.048,570.066,0.0
55780.0,STARLINK-5819,PAYLOAD,2024-03-16 14:06:35,14.98329314,0.0002838,69.9999,247.4798,260.7968,99.287,-2.297e-05,-3.67e-06,0.0,0 STARLINK-5819,1 55780U 23028AR  24076.58791397 -.00000367  00000-0 -22970-4 0  9990,2 55780  69.9999 247.4798 0002838 260.7968  99.2870 14.98329314 58224,6950.195,96.107,574.032,570.088,0.0
55780.0,STARLINK-5819,PAYLOAD,2024-03-16 20:31:08,14.98328693,0.000284,69.9999,246.8066,260.9621,99.1217,-2.7598e-05,-4.22e-06,0.0,0 STARLINK-5819,1 55780U 23028AR  24076.85495468 -.00000422  00000-0 -27598-4 0  9993,2 55780  69.9999 246.8066 0002840 260.9621  99.1217 14.98328693 58263,6950.197,96.107,574.036,570.088,0.0
55780.0,STARLINK-5819,PAYLOAD,2024-03-17 12:32:28,14.98328858,0.0003024,69.9994,245.1236,267.5041,92.5772,2.125e-05,1.61e-06,0.0,0 STARLINK-5819,1 55780U 23028AR  24077.52255348  .00000161  00000-0  21250-4 0  9996,2 55780  69.9994 245.1236 0003024 267.5041  92.5772 14.98328858 58360,6950.196,96.107,574.163,569.96,0.0
55780.0,STARLINK-5819,PAYLOAD,2024-03-17 14:08:36,14.98329205,0.0003008,69.9994,244.9553,267.3309,92.7505,2.4195e-05,1.96e-06,0.0,0 STARLINK-5819,1 55780U 23028AR  24077.58931321  .00000196  00000-0  24195-4 0  9993,2 55780  69.9994 244.9553 0003008 267.3309  92.7505 14.98329205 58370,6950.195,96.107,574.151,569.97,0.0
55780.0,STARLINK-5819,PAYLOAD,2024-03-17 20:33:08,14.98329544,0.0002976,69.9996,244.2818,265.1884,94.8935,2.7248e-05,2.32e-06,0.0,0 STARLINK-5819,1 55780U 23028AR  24077.85635295  .00000232  00000-0  27248-4 0  9997,2 55780  69.9996 244.2818 0002976 265.1884  94.8935 14.98329544 58417,6950.194,96.107,574.128,569.991,0.0
55780.0,STARLINK-5819,PAYLOAD,2024-03-18 12:34:29,14.98329204,0.000295,69.9998,242.5988,265.2886,94.7936,3.5955e-05,3.36e-06,0.0,0 STARLINK-5819,1 55780U 23028AR  24078.52395308  .00000336  00000-0  35955-4 0  9999,2 55780  69.9998 242.5988 0002950 265.2886  94.7936 14.98329204 58517,6950.195,96.107,574.111,570.01,0.0
55780.0,STARLINK-5819,PAYLOAD,2024-03-18 20:35:09,14.98329189,0.0002967,69.9998,241.7572,265.7746,94.3074,3.1724e-05,2.86e-06,0.0,0 STARLINK-5819,1 55780U 23028AR  24078.85775336  .00000286  00000-0  31724-4 0  9992,2 55780  69.9998 241.7572 0002967 265.7746  94.3074 14.98329189 58561,6950.195,96.107,574.123,569.998,0.0
55780.0,STARLINK-5819,PAYLOAD,2024-03-19 11:00:22,14.98332793,0.000299,69.9998,240.2418,266.7658,93.3159,3.8237e-05,3.63e-06,0.0,0 STARLINK-5819,1 55780U 23028AR  24079.45859068  .00000363  00000-0  38237-4 0  9996,2 55780  69.9998 240.2418 0002990 266.7658  93.3159 14.98332793 58651,6950.184,96.107,574.127,569.971,0.0
55780.0,STARLINK-5819,PAYLOAD,2024-03-19 20:37:10,14.9833712,0.0003014,69.9996,239.2308,269.9074,90.174,8.12e-05,8.76e-06,0.0,0 STARLINK-5819,1 55780U 23028AR  24079.85914594  .00000876  00000-0  81200-4 0  9993,2 55780  69.9996 239.2308 0003014 269.9074  90.1740 14.98337120 58717,6950.171,96.107,574.131,569.941,0.0
55780.0,STARLINK-5819,PAYLOAD,2024-03-20 11:02:23,14.98301778,0.0002474,70.0008,237.717,278.6661,81.4218,0.00041223,4.825e-05,0.0,0 STARLINK-5819,1 55780U 23028AR  24080.45999667  .00004825  00000-0  41223-3 0  9993,2 55780  70.0008 237.7170 0002474 278.6661  81.4218 14.98301778 58805,6950.28,96.109,573.865,570.426,0.0
55780.0,STARLINK-5819,PAYLOAD,2024-03-20 14:14:39,14.98333707,0.0002458,70.0008,237.3798,269.8659,90.2218,-0.00010915,-1.395e-05,0.0,0 STARLINK-5819,1 55780U 23028AR  24080.59351456 -.00001395  00000-0 -10915-3 0  9991,2 55780  70.0008 237.3798 0002458 269.8659  90.2218 14.98333707 58825,6950.181,96.107,573.755,570.338,0.0
55780.0,STARLINK-5819,PAYLOAD,2024-03-20 20:39:12,14.98326451,0.0002777,70.0003,236.707,272.8959,87.1882,5.2346e-06,-3.1e-07,0.0,0 STARLINK-5819,1 55780U 23028AR  24080.86055608 -.00000031  00000-0  52346-5 0  9992,2 55780  70.0003 236.7070 0002777 272.8959  87.1882 14.98326451 58861,6950.204,96.107,573.999,570.139,0.0
55780.0,STARLINK-5819,PAYLOAD,2024-03-21 14:16:40,14.9833355,0.0002741,70.0005,234.8559,276.596,83.4887,1.4972e-05,8.6e-07,0.0,0 STARLINK-5819,1 55780U 23028AR  24081.59491162  .00000086  00000-0  14972-4 0  9993,2 55780  70.0005 234.8559 0002741 276.5960  83.4887 14.98333550 58972,6950.182,96.107,573.952,570.142,0.0
55780.0,STARLINK-5819,PAYLOAD,2024-03-21 19:05:04,14.98335259,0.0002702,70.0005,234.3507,275.6044,84.4806,3.6545e-05,3.43e-06,0.0,0 STARLINK-5819,1 55780U 23028AR  24081.79518947  .00000343  00000-0  36545-4 0  9992,2 55780  70.0005 234.3507 0002702 275.6044  84.4806 14.98335259 59005,6950.177,96.107,573.92,570.164,0.0
55780.0,STARLINK-5819,PAYLOAD,2024-03-22 14:18:40,14.98331498,0.0002731,70.0004,232.3315,263.5975,96.4873,9.2946e-05,1.016e-05,0.0,0 STARLINK-5819,1 55780U 23028AR  24082.59630754  .00001016  00000-0  92946-4 0  9997,2 55780  70.0004 232.3315 0002731 263.5975  96.4873 14.98331498 59121,6950.188,96.107,573.951,570.155,0.0
55780.0,STARLINK-5819,PAYLOAD,2024-03-22 20:43:12,14.98334888,0.0002701,70.0005,231.6578,259.6747,100.4108,0.00012205,1.364e-05,0.0,0 STARLINK-5819,1 55780U 23028AR  24082.86334391  .00001364  00000-0  12205-3 0  9990,2 55780  70.0005 231.6578 0002701 259.6747 100.4108 14.98334888 59162,6950.178,96.107,573.92,570.166,0.0
55780.0,STARLINK-5819,PAYLOAD,2024-03-23 12:44:34,14.98327758,0.0002445,70.0014,229.9749,246.6966,113.3936,-6.3183e-05,-8.47e-06,0.0,0 STARLINK-5819,1 55780U 23028AR  24083.53095333 -.00000847  00000-0 -63183-4 0  9994,2 55780  70.0014 229.9749 0002445 246.6966 113.3936 14.98327758 59267,6950.2,96.107,573.764,570.366,0.0
55780.0,STARLINK-5819,PAYLOAD,2024-03-23 19:09:06,14.98328399,0.0002763,70.0006,229.3013,259.5039,100.5809,-5.9878e-05,-8.07e-06,0.0,0 STARLINK-5819,1 55780U 23028AR  24083.79799334 -.00000807  00000-0 -59878-4 0  9996,2 55780  70.0006 229.3013 0002763 259.5039 100.5809 14.98328399 59307,6950.198,96.107,573.983,570.143,0.0
55780.0,STARLINK-5819,PAYLOAD,2024-03-24 12:46:35,14.98327488,0.0002886,70.0004,227.4487,261.7413,98.3419,-6.915e-05,-9.18e-06,0.0,0 STARLINK-5819,1 55780U 23028AR  24084.53235592 -.00000918  00000-0 -69150-4 0  9997,2 55780  70.0004 227.4487 0002886 261.7413  98.3419 14.98327488 59417,6950.201,96.107,574.071,570.06,0.0
55780.0,STARLINK-5819,PAYLOAD,2024-03-24 14:22:43,14.98326789,0.000283,70.0006,227.281,261.3153,98.7685,-5.9152e-05,-7.99e-06,0.0,0 STARLINK-5819,1 55780U 23028AR  24084.59911631 -.00000799  00000-0 -59152-4 0  9996,2 55780  70.0006 227.2810 0002830 261.3153  98.7685 14.98326789 59426,6950.203,96.107,574.035,570.101,0.0
55780.0,STARLINK-5819,PAYLOAD,2024-03-24 19:11:07,14.98332985,0.0002773,70.0008,226.7766,260.3026,99.782,1.8858e-05,1.32e-06,0.0,0 STARLINK-5819,1 55780U 23028AR  24084.79939140  .00000132  00000-0  18858-4 0  9990,2 55780  70.0008 226.7766 0002773 260.3026  99.7820 14.98332985 59456,6950.184,96.107,573.976,570.121,0.0
55780.0,STARLINK-5819,PAYLOAD,2024-03-25 12:48:35,14.98324244,0.0002914,70.0005,224.9243,267.7449,92.3376,0.00030284,3.522e-05,0.0,0 STARLINK-5819,1 55780U 23028AR  24085.53374891  .00003522  00000-0  30284-3 0  9991,2 55780  70.0005 224.9243 0002914 267.7449  92.3376 14.98324244 59566,6950.211,96.107,574.101,570.05,0.0
55780.0,STARLINK-5819,PAYLOAD,2024-03-25 19:13:07,14.98339403,0.0003021,70.0005,224.2513,266.4974,93.5839,0.00019777,2.268e-05,0.0,0 STARLINK-5819,1 55780U 23028AR  24085.80078193  .00002268  00000-0  19777-3 0  9997,2 55780  70.0005 224.2513 0003021 266.4974  93.5839 14.98339403 59603,6950.164,96.106,574.128,569.929,0.0
55780.0,STARLINK-5819,PAYLOAD,2024-03-26 11:14:33,14.98278861,0.0002992,70.0003,222.5685,273.9725,86.1092,-0.00050799,-6.141e-05,0.0,0 STARLINK-5819,1 55780U 23028AR  24086.46844530 -.00006141  00000-0 -50799-3 0  9991,2 55780  70.0003 222.5685 0002992 273.9725  86.1092 14.98278861 59705,6950.351,96.11,574.296,570.136,0.0
55780.0,STARLINK-5819,PAYLOAD,2024-03-26 14:26:46,14.9832802,0.0002919,70.0005,222.232,263.0176,97.0651,5.1701e-05,5.24e-06,0.0,0 STARLINK-5819,1 55780U 23028AR  24086.60192334  .00000524  00000-0  51701-4 0  9997,2 55780  70.0005 222.2320 0002919 263.0176  97.0651 14.98328020 59726,6950.199,96.107,574.093,570.035,0.0
55780.0,STARLINK-5819,PAYLOAD,2024-03-26 19:15:10,14.98327362,0.000311,70.0004,221.7268,269.3785,90.7018,4.9238e-05,4.94e-06,0.0,0 STARLINK-5819,1 55780U 23028AR  24086.80220519  .00000494  00000-0  49238-4 0  9994,2 55780  70.0004 221.7268 0003110 269.3785  90.7018 14.98327362 59757,6950.201,96.107,574.228,569.905,0.0
55780.0,STARLINK-5819,PAYLOAD,2024-03-27 01:39:42,14.98334831,0.0003194,70.0005,221.0536,270.6737,89.4056,8.9602e-05,9.76e-06,0.0,0 STARLINK-5819,1 55780U 23028AR  24087.06923937  .00000976  00000-0  89602-4 0  9991,2 55780  70.0005 221.0536 0003194 270.6737  89.4056 14.98334831 59793,6950.178,96.107,574.263,569.823,0.0
55780.0,STARLINK-5819,PAYLOAD,2024-03-27 11:16:29,14.98343617,0.0003262,70.0,220.043,269.6866,90.3919,0.00014001,1.579e-05,0.0,0 STARLINK-5819,1 55780U 23028AR  24087.46979151  .00001579  00000-0  14001-3 0  9994,2 55780  70.0000 220.0430 0003262 269.6866  90.3919 14.98343617 59855,6950.151,96.106,574.283,569.749,0.0
55780.0,STARLINK-5819,PAYLOAD,2024-03-27 17:41:01,14.98354184,0.0003217,70.0002,219.3703,270.2839,89.7952,0.00021831,2.514e-05,0.0,0 STARLINK-5819,1 55780U 23028AR  24087.73681952  .00002514  00000-0  21831-3 0  9992,2 55780  70.0002 219.3703 0003217 270.2839  89.7952 14.98354184 59893,6950.118,96.105,574.219,569.747,0.0
